[{"OBJECT_NAME":"SL-8 R/B","OBJECT_ID":"1988-053B","EPOCH":"2026-03-24T08:01:08.457888","MEAN_MOTION":14.3892556,"ECCENTRICITY":0.00215222,"INCLINATION":74.0451,"RA_OF_ASC_NODE":85.4695,"ARG_OF_PERICENTER":262.834,"MEAN_ANOMALY":199.3922,"EPHEMERIS_TYPE":0,"CLASSIFICATION_TYPE":"U","NORAD_CAT_ID":19257,"ELEMENT_SET_NO":999,"REV_AT_EPOCH":97870,"BSTAR":0.00011232828,"MEAN_MOTION_DOT":3.21e-6,"MEAN_MOTION_DDOT":0},{"OBJECT_NAME":"COSMOS 1975","OBJECT_ID":"1988-093A","EPOCH":"2026-03-24T03:07:47.965728","MEAN_MOTION":15.282596,"ECCENTRICITY":0.00132385,"INCLINATION":82.5166,"RA_OF_ASC_NODE":103.1838,"ARG_OF_PERICENTER":116.7399,"MEAN_ANOMALY":243.5197,"EPHEMERIS_TYPE":0,"CLASSIFICATION_TYPE":"U","NORAD_CAT_ID":19573,"ELEMENT_SET_NO":999,"REV_AT_EPOCH":2161,"BSTAR":0.00025138211,"MEAN_MOTION_DOT":6.97e-5,"MEAN_MOTION_DDOT":0},{"OBJECT_NAME":"SL-14 R/B","OBJECT_ID":"1988-093B","EPOCH":"2026-03-24T05:18:33.939360","MEAN_MOTION":14.85673352,"ECCENTRICITY":0.00205246,"INCLINATION":82.5333,"RA_OF_ASC_NODE":28.4039,"ARG_OF_PERICENTER":354.6351,"MEAN_ANOMALY":125.4614,"EPHEMERIS_TYPE":0,"CLASSIFICATION_TYPE":"U","NORAD_CAT_ID":19574,"ELEMENT_SET_NO":999,"REV_AT_EPOCH":317,"BSTAR":6.6199949e-5,"MEAN_MOTION_DOT":6.0e-6,"MEAN_MOTION_DDOT":0},{"OBJECT_NAME":"SL-16 R/B","OBJECT_ID":"1988-102B","EPOCH":"2026-03-24T04:09:20.172960","MEAN_MOTION":14.16154936,"ECCENTRICITY":0.00149294,"INCLINATION":70.9981,"RA_OF_ASC_NODE":121.0233,"ARG_OF_PERICENTER":339.3961,"MEAN_ANOMALY":20.6558,"EPHEMERIS_TYPE":0,"CLASSIFICATION_TYPE":"U","NORAD_CAT_ID":19650,"ELEMENT_SET_NO":999,"REV_AT_EPOCH":92894,"BSTAR":-9.6819022e-5,"MEAN_MOTION_DOT":-2.4e-6,"MEAN_MOTION_DDOT":0},{"OBJECT_NAME":"INTERCOSMOS 24","OBJECT_ID":"1989-080A","EPOCH":"2026-03-24T06:12:59.082624","MEAN_MOTION":12.5957712,"ECCENTRICITY":0.1186768,"INCLINATION":82.6013,"RA_OF_ASC_NODE":94.9139,"ARG_OF_PERICENTER":258.9709,"MEAN_ANOMALY":87.5948,"EPHEMERIS_TYPE":0,"CLASSIFICATION_TYPE":"U","NORAD_CAT_ID":20261,"ELEMENT_SET_NO":999,"REV_AT_EPOCH":66863,"BSTAR":0.00016407328,"MEAN_MOTION_DOT":5.53e-6,"MEAN_MOTION_DDOT":0},{"OBJECT_NAME":"SL-14 R/B","OBJECT_ID":"1989-080C","EPOCH":"2026-03-24T04:47:00.774528","MEAN_MOTION":12.50508057,"ECCENTRICITY":0.12308611,"INCLINATION":82.5965,"RA_OF_ASC_NODE":163.8757,"ARG_OF_PERICENTER":151.6004,"MEAN_ANOMALY":215.821,"EPHEMERIS_TYPE":0,"CLASSIFICATION_TYPE":"U","NORAD_CAT_ID":20262,"ELEMENT_SET_NO":999,"REV_AT_EPOCH":66196,"BSTAR":0.0001235861,"MEAN_MOTION_DOT":4.36e-6,"MEAN_MOTION_DDOT":0},{"OBJECT_NAME":"DELTA 1 R/B","OBJECT_ID":"1989-089B","EPOCH":"2026-03-24T04:11:31.999488","MEAN_MOTION":14.50674607,"ECCENTRICITY":0.00706668,"INCLINATION":97.0695,"RA_OF_ASC_NODE":288.3082,"ARG_OF_PERICENTER":77.1246,"MEAN_ANOMALY":283.7835,"EPHEMERIS_TYPE":0,"CLASSIFICATION_TYPE":"U","NORAD_CAT_ID":20323,"ELEMENT_SET_NO":999,"REV_AT_EPOCH":89783,"BSTAR":8.8471178e-5,"MEAN_MOTION_DOT":3.24e-6,"MEAN_MOTION_DDOT":0},{"OBJECT_NAME":"ARIANE 40 R/B","OBJECT_ID":"1990-005H","EPOCH":"2026-03-24T03:05:15.747936","MEAN_MOTION":14.39879583,"ECCENTRICITY":0.00107477,"INCLINATION":98.3053,"RA_OF_ASC_NODE":143.3578,"ARG_OF_PERICENTER":155.6674,"MEAN_ANOMALY":204.5024,"EPHEMERIS_TYPE":0,"CLASSIFICATION_TYPE":"U","NORAD_CAT_ID":20443,"ELEMENT_SET_NO":999,"REV_AT_EPOCH":89488,"BSTAR":9.8764242e-5,"MEAN_MOTION_DOT":2.68e-6,"MEAN_MOTION_DDOT":0},{"OBJECT_NAME":"DELTA 2 R/B(1)","OBJECT_ID":"1990-008B","EPOCH":"2026-03-23T06:57:55.734624","MEAN_MOTION":15.57716328,"ECCENTRICITY":0.00799445,"INCLINATION":35.6034,"RA_OF_ASC_NODE":85.4758,"ARG_OF_PERICENTER":25.1791,"MEAN_ANOMALY":335.2813,"EPHEMERIS_TYPE":0,"CLASSIFICATION_TYPE":"U","NORAD_CAT_ID":20453,"ELEMENT_SET_NO":999,"REV_AT_EPOCH":92825,"BSTAR":0.00082028965,"MEAN_MOTION_DOT":0.00073697,"MEAN_MOTION_DDOT":0},{"OBJECT_NAME":"COSMOS 2058","OBJECT_ID":"1990-010A","EPOCH":"2026-03-24T03:32:08.490336","MEAN_MOTION":15.11446221,"ECCENTRICITY":0.00075145,"INCLINATION":82.4683,"RA_OF_ASC_NODE":33.1809,"ARG_OF_PERICENTER":289.6206,"MEAN_ANOMALY":70.4212,"EPHEMERIS_TYPE":0,"CLASSIFICATION_TYPE":"U","NORAD_CAT_ID":20465,"ELEMENT_SET_NO":999,"REV_AT_EPOCH":94442,"BSTAR":0.000273258,"MEAN_MOTION_DOT":4.649e-5,"MEAN_MOTION_DDOT":0},{"OBJECT_NAME":"SL-14 R/B","OBJECT_ID":"1990-010B","EPOCH":"2026-03-24T04:30:31.202496","MEAN_MOTION":14.83581396,"ECCENTRICITY":0.00184055,"INCLINATION":82.499,"RA_OF_ASC_NODE":253.7659,"ARG_OF_PERICENTER":250.7491,"MEAN_ANOMALY":109.1733,"EPHEMERIS_TYPE":0,"CLASSIFICATION_TYPE":"U","NORAD_CAT_ID":20466,"ELEMENT_SET_NO":999,"REV_AT_EPOCH":93063,"BSTAR":5.3620828e-5,"MEAN_MOTION_DOT":4.66e-6,"MEAN_MOTION_DDOT":0},{"OBJECT_NAME":"SL-14 R/B","OBJECT_ID":"1990-018B","EPOCH":"2026-03-24T06:53:27.292416","MEAN_MOTION":14.82159091,"ECCENTRICITY":0.0017247,"INCLINATION":82.5229,"RA_OF_ASC_NODE":209.4475,"ARG_OF_PERICENTER":47.6911,"MEAN_ANOMALY":312.5762,"EPHEMERIS_TYPE":0,"CLASSIFICATION_TYPE":"U","NORAD_CAT_ID":20511,"ELEMENT_SET_NO":999,"REV_AT_EPOCH":92474,"BSTAR":5.7979915e-5,"MEAN_MOTION_DOT":4.86e-6,"MEAN_MOTION_DDOT":0},{"OBJECT_NAME":"HST","OBJECT_ID":"1990-037B","EPOCH":"2026-03-24T07:07:10.916832","MEAN_MOTION":15.2970354,"ECCENTRICITY":0.00014982,"INCLINATION":28.472,"RA_OF_ASC_NODE":300.3408,"ARG_OF_PERICENTER":295.029,"MEAN_ANOMALY":65.015,"EPHEMERIS_TYPE":0,"CLASSIFICATION_TYPE":"U","NORAD_CAT_ID":20580,"ELEMENT_SET_NO":999,"REV_AT_EPOCH":77555,"BSTAR":0.00022539745,"MEAN_MOTION_DOT":6.906e-5,"MEAN_MOTION_DDOT":0},{"OBJECT_NAME":"SL-16 R/B","OBJECT_ID":"1990-046B","EPOCH":"2026-03-24T06:13:59.543616","MEAN_MOTION":14.15013222,"ECCENTRICITY":0.00162655,"INCLINATION":70.9954,"RA_OF_ASC_NODE":267.3118,"ARG_OF_PERICENTER":280.5356,"MEAN_ANOMALY":79.3934,"EPHEMERIS_TYPE":0,"CLASSIFICATION_TYPE":"U","NORAD_CAT_ID":20625,"ELEMENT_SET_NO":999,"REV_AT_EPOCH":85045,"BSTAR":0.00011056336,"MEAN_MOTION_DOT":1.67e-6,"MEAN_MOTION_DDOT":0},{"OBJECT_NAME":"COSMOS 2084","OBJECT_ID":"1990-055A","EPOCH":"2026-03-23T22:25:22.093536","MEAN_MOTION":15.05725105,"ECCENTRICITY":0.00148546,"INCLINATION":62.7894,"RA_OF_ASC_NODE":286.9913,"ARG_OF_PERICENTER":194.1057,"MEAN_ANOMALY":165.9631,"EPHEMERIS_TYPE":0,"CLASSIFICATION_TYPE":"U","NORAD_CAT_ID":20663,"ELEMENT_SET_NO":999,"REV_AT_EPOCH":93846,"BSTAR":0.00018450158,"MEAN_MOTION_DOT":2.486e-5,"MEAN_MOTION_DDOT":0},{"OBJECT_NAME":"SL-6 R/B(2)","OBJECT_ID":"1990-055D","EPOCH":"2026-03-24T01:40:00.571584","MEAN_MOTION":15.03662441,"ECCENTRICITY":0.00271583,"INCLINATION":62.783,"RA_OF_ASC_NODE":204.9464,"ARG_OF_PERICENTER":350.3892,"MEAN_ANOMALY":9.6684,"EPHEMERIS_TYPE":0,"CLASSIFICATION_TYPE":"U","NORAD_CAT_ID":20666,"ELEMENT_SET_NO":999,"REV_AT_EPOCH":94035,"BSTAR":0.0001817429,"MEAN_MOTION_DOT":2.318e-5,"MEAN_MOTION_DDOT":0},{"OBJECT_NAME":"SL-8 R/B","OBJECT_ID":"1990-078B","EPOCH":"2026-03-24T03:42:58.095648","MEAN_MOTION":14.89510297,"ECCENTRICITY":0.03592394,"INCLINATION":82.902,"RA_OF_ASC_NODE":238.2941,"ARG_OF_PERICENTER":325.2582,"MEAN_ANOMALY":32.5635,"EPHEMERIS_TYPE":0,"CLASSIFICATION_TYPE":"U","NORAD_CAT_ID":20775,"ELEMENT_SET_NO":999,"REV_AT_EPOCH":81145,"BSTAR":0.00037588895,"MEAN_MOTION_DOT":0.00012704,"MEAN_MOTION_DDOT":0}]
